ONEWEB-0578             
1 56067U 23043X   25270.58845987  .00000017  00000+0  10411-4 0  9994
2 56067  87.9181 296.3778 0002111  91.7468 268.3908 13.21826263123547
ONEWEB-0579             
1 56068U 23043Y   25270.50330900  .00000051  00000+0  92104-4 0  9998
2 56068  87.9184 296.3816 0001594  94.5694 265.5622 13.21826126123540
ONEWEB-0581             
1 56069U 23043Z   25270.50476625  .00000043  00000+0  79399-4 0  9996
2 56069  87.8962 281.1312 0001759  76.8776 283.2551 13.16592809124398
ONEWEB-0609             
1 56070U 23043AA  25270.55780122  .00000121  00000+0  28619-3 0  9998
2 56070  87.9004 311.6285 0001815  96.3501 263.7836 13.15550667121900
ONEWEB-0613             
1 56071U 23043AB  25270.55304942  .00000082  00000+0  18390-3 0  9992
2 56071  87.9004 311.6432 0001612 103.0758 257.0552 13.15551038121904
ONEWEB-0630             
1 56072U 23043AC  25270.54828554  .00000017  00000+0  10765-4 0  9999
2 56072  87.9002 311.6167 0001587 102.6937 257.4370 13.15550010121892
ONEWEB-0632             
1 56073U 23043AD  25270.54353875 -.00000027  00000+0 -10546-3 0  9998
2 56073  87.9000 311.6375 0001715  89.1077 271.0250 13.15546894121893
ONEWEB-0633             
1 56074U 23043AE  25270.53718777 -.00000303  00000+0 -83809-3 0  9993
2 56074  87.9000 311.6023 0001729 108.8645 251.2673 13.15547298121875
